{
  "type": "FeatureCollection",
  "features": [
    {
      "type": "Feature",
      "properties": {
        "norad_id": 43706,
        "name": "BEIDOU-3 M17 (C36)",
        "group": "beidou",
        "lat": 53.54134429573482,
        "lon": -93.61548973832883,
        "alt_km": 21534.04892420435,
        "timestamp": "2025-12-21T03:56:51.102620+00:00",
        "meta_object_name": "BEIDOU-3 M17 (C36)",
        "meta_object_id": "2018-093A",
        "meta_epoch": "2025-12-20T12:04:20.840736",
        "meta_mean_motion": 1.86228485,
        "meta_eccentricity": 0.00060883,
        "meta_inclination": 54.1751,
        "meta_ra_of_asc_node": 188.3582,
        "meta_arg_of_pericenter": 307.8758,
        "meta_mean_anomaly": 51.559,
        "meta_ephemeris_type": 0,
        "meta_classification_type": "U",
        "meta_norad_cat_id": 43706,
        "meta_element_set_no": 999,
        "meta_rev_at_epoch": 4820,
        "meta_bstar": 0,
        "meta_mean_motion_dot": 9.7e-07,
        "meta_mean_motion_ddot": 0,
        "tle_line1": "1 43706U 18093A   25354.50301899  .00000097  00000+0  00000+0 0  9999",
        "tle_line2": "2 43706  54.1751 188.3582 0006088 307.8758  51.5590  1.86228485 48203"
      },
      "geometry": {
        "type": "Point",
        "coordinates": [
          -93.61548973832883,
          53.54134429573482
        ]
      }
    },
    {
      "type": "Feature",
      "properties": {
        "norad_id": 43707,
        "name": "BEIDOU-3 M18 (C37)",
        "group": "beidou",
        "lat": 3.450955013656131,
        "lon": 5.8345512397983725,
        "alt_km": 21545.629787574922,
        "timestamp": "2025-12-21T03:56:51.102630+00:00",
        "meta_object_name": "BEIDOU-3 M18 (C37)",
        "meta_object_id": "2018-093B",
        "meta_epoch": "2025-12-20T08:46:15.603168",
        "meta_mean_motion": 1.86226697,
        "meta_eccentricity": 0.0006223,
        "meta_inclination": 54.174,
        "meta_ra_of_asc_node": 188.3547,
        "meta_arg_of_pericenter": 354.092,
        "meta_mean_anomaly": 5.9566,
        "meta_ephemeris_type": 0,
        "meta_classification_type": "U",
        "meta_norad_cat_id": 43707,
        "meta_element_set_no": 999,
        "meta_rev_at_epoch": 4820,
        "meta_bstar": 0,
        "meta_mean_motion_dot": 9.7e-07,
        "meta_mean_motion_ddot": 0,
        "tle_line1": "1 43707U 18093B   25354.36545837  .00000097  00000+0  00000+0 0  9996",
        "tle_line2": "2 43707  54.1740 188.3547 0006223 354.0920   5.9566  1.86226697 48208"
      },
      "geometry": {
        "type": "Point",
        "coordinates": [
          5.8345512397983725,
          3.450955013656131
        ]
      }
    },
    {
      "type": "Feature",
      "properties": {
        "norad_id": 44231,
        "name": "BEIDOU-2 G8 (C01)",
        "group": "beidou",
        "lat": -1.0813367917724346,
        "lon": -66.4162251366063,
        "alt_km": 35758.44032556436,
        "timestamp": "2025-12-21T03:56:51.102641+00:00",
        "meta_object_name": "BEIDOU-2 G8 (C01)",
        "meta_object_id": "2019-027A",
        "meta_epoch": "2025-12-19T12:14:23.449632",
        "meta_mean_motion": 1.00276563,
        "meta_eccentricity": 0.0008196,
        "meta_inclination": 1.6785,
        "meta_ra_of_asc_node": 74.7229,
        "meta_arg_of_pericenter": 258.5641,
        "meta_mean_anomaly": 83.1013,
        "meta_ephemeris_type": 0,
        "meta_classification_type": "U",
        "meta_norad_cat_id": 44231,
        "meta_element_set_no": 999,
        "meta_rev_at_epoch": 2427,
        "meta_bstar": 0,
        "meta_mean_motion_dot": -2.24e-06,
        "meta_mean_motion_ddot": 0,
        "tle_line1": "1 44231U 19027A   25353.50999363 -.00000224  00000+0  00000+0 0  9992",
        "tle_line2": "2 44231   1.6785  74.7229 0008196 258.5641  83.1013  1.00276563 24270"
      },
      "geometry": {
        "type": "Point",
        "coordinates": [
          -66.4162251366063,
          -1.0813367917724346
        ]
      }
    },
    {
      "type": "Feature",
      "properties": {
        "norad_id": 44337,
        "name": "BEIDOU-3 IGSO-2 (C39)",
        "group": "beidou",
        "lat": 51.40083826732351,
        "lon": -80.22770237612113,
        "alt_km": 35792.83507001281,
        "timestamp": "2025-12-21T03:56:51.102652+00:00",
        "meta_object_name": "BEIDOU-3 IGSO-2 (C39)",
        "meta_object_id": "2019-035A",
        "meta_epoch": "2025-12-20T20:45:51.571008",
        "meta_mean_motion": 1.00268938,
        "meta_eccentricity": 0.0037599,
        "meta_inclination": 55.2283,
        "meta_ra_of_asc_node": 160.43,
        "meta_arg_of_pericenter": 202.2266,
        "meta_mean_anomaly": 157.9019,
        "meta_ephemeris_type": 0,
        "meta_classification_type": "U",
        "meta_norad_cat_id": 44337,
        "meta_element_set_no": 999,
        "meta_rev_at_epoch": 2388,
        "meta_bstar": 0,
        "meta_mean_motion_dot": -6.9e-07,
        "meta_mean_motion_ddot": 0,
        "tle_line1": "1 44337U 19035A   25354.86518022 -.00000069  00000+0  00000+0 0  9994",
        "tle_line2": "2 44337  55.2283 160.4300 0037599 202.2266 157.9019  1.00268938 23885"
      },
      "geometry": {
        "type": "Point",
        "coordinates": [
          -80.22770237612113,
          51.40083826732351
        ]
      }
    },
    {
      "type": "Feature",
      "properties": {
        "norad_id": 44542,
        "name": "BEIDOU-3 M24 (C46)",
        "group": "beidou",
        "lat": 39.60633968803755,
        "lon": -27.644342892282356,
        "alt_km": 21529.163639685044,
        "timestamp": "2025-12-21T03:56:51.102662+00:00",
        "meta_object_name": "BEIDOU-3 M24 (C46)",
        "meta_object_id": "2019-061A",
        "meta_epoch": "2025-12-20T10:28:25.457664",
        "meta_mean_motion": 1.86229474,
        "meta_eccentricity": 0.0009602,
        "meta_inclination": 54.4004,
        "meta_ra_of_asc_node": 188.7562,
        "meta_arg_of_pericenter": 25.7193,
        "meta_mean_anomaly": 334.3849,
        "meta_ephemeris_type": 0,
        "meta_classification_type": "U",
        "meta_norad_cat_id": 44542,
        "meta_element_set_no": 999,
        "meta_rev_at_epoch": 4246,
        "meta_bstar": 0,
        "meta_mean_motion_dot": 9.8e-07,
        "meta_mean_motion_ddot": 0,
        "tle_line1": "1 44542U 19061A   25354.43640576  .00000098  00000+0  00000+0 0  9995",
        "tle_line2": "2 44542  54.4004 188.7562 0009602  25.7193 334.3849  1.86229474 42462"
      },
      "geometry": {
        "type": "Point",
        "coordinates": [
          -27.644342892282356,
          39.60633968803755
        ]
      }
    },
    {
      "type": "Feature",
      "properties": {
        "norad_id": 44543,
        "name": "BEIDOU-3 M23 (C45)",
        "group": "beidou",
        "lat": 32.1667573368253,
        "lon": -144.4960186905363,
        "alt_km": 21508.104323521613,
        "timestamp": "2025-12-21T03:56:51.102672+00:00",
        "meta_object_name": "BEIDOU-3 M23 (C45)",
        "meta_object_id": "2019-061B",
        "meta_epoch": "2025-12-20T19:59:50.639136",
        "meta_mean_motion": 1.86227682,
        "meta_eccentricity": 0.0006074,
        "meta_inclination": 54.3995,
        "meta_ra_of_asc_node": 188.7112,
        "meta_arg_of_pericenter": 25.3362,
        "meta_mean_anomaly": 153.5268,
        "meta_ephemeris_type": 0,
        "meta_classification_type": "U",
        "meta_norad_cat_id": 44543,
        "meta_element_set_no": 999,
        "meta_rev_at_epoch": 4247,
        "meta_bstar": 0,
        "meta_mean_motion_dot": 9.6e-07,
        "meta_mean_motion_ddot": 0,
        "tle_line1": "1 44543U 19061B   25354.83322499  .00000096  00000+0  00000+0 0  9999",
        "tle_line2": "2 44543  54.3995 188.7112 0006074  25.3362 153.5268  1.86227682 42472"
      },
      "geometry": {
        "type": "Point",
        "coordinates": [
          -144.4960186905363,
          32.1667573368253
        ]
      }
    },
    {
      "type": "Feature",
      "properties": {
        "norad_id": 44793,
        "name": "BEIDOU-3 M22 (C44)",
        "group": "beidou",
        "lat": -41.857926488476025,
        "lon": 166.47758778452086,
        "alt_km": 21547.219744072994,
        "timestamp": "2025-12-21T03:56:51.102682+00:00",
        "meta_object_name": "BEIDOU-3 M22 (C44)",
        "meta_object_id": "2019-078A",
        "meta_epoch": "2025-12-19T04:51:35.344224",
        "meta_mean_motion": 1.86232161,
        "meta_eccentricity": 0.0006038,
        "meta_inclination": 54.1023,
        "meta_ra_of_asc_node": 306.1592,
        "meta_arg_of_pericenter": 24.3104,
        "meta_mean_anomaly": 335.7082,
        "meta_ephemeris_type": 0,
        "meta_classification_type": "U",
        "meta_norad_cat_id": 44793,
        "meta_element_set_no": 999,
        "meta_rev_at_epoch": 4129,
        "meta_bstar": 0,
        "meta_mean_motion_dot": -7.7e-07,
        "meta_mean_motion_ddot": 0,
        "tle_line1": "1 44793U 19078A   25353.20249241 -.00000077  00000+0  00000+0 0  9997",
        "tle_line2": "2 44793  54.1023 306.1592 0006038  24.3104 335.7082  1.86232161 41295"
      },
      "geometry": {
        "type": "Point",
        "coordinates": [
          166.47758778452086,
          -41.857926488476025
        ]
      }
    }
  ]
}